NORAD_CAT_ID,OBJECT_NAME,OBJECT_TYPE,EPOCH,MEAN_MOTION,ECCENTRICITY,INCLINATION,RA_OF_ASC_NODE,ARG_OF_PERICENTER,MEAN_ANOMALY,BSTAR,MEAN_MOTION_DOT,MEAN_MOTION_DDOT,TLE_LINE0,TLE_LINE1,TLE_LINE2,SEMIMAJOR_AXIS,PERIOD,APOGEE,PERIGEE,DECAYED
52648.0,STARLINK-3854,PAYLOAD,2024-03-18 21:29:52,15.0884547,0.0001338,53.2165,254.8906,77.0525,283.0616,0.00011252,1.504e-05,0.0,0 STARLINK-3854,1 52648U 22052BC  24078.89574624  .00001504  00000-0  11252-3 0  9996,2 52648  53.2165 254.8906 0001338  77.0525 283.0616 15.08845470102319,6917.864,95.437,540.654,538.803,0.0
52648.0,STARLINK-3854,PAYLOAD,2024-03-19 11:48:21,15.08840432,0.0001346,53.2159,252.2129,87.4974,272.6172,5.0544e-05,5.17e-06,0.0,0 STARLINK-3854,1 52648U 22052BC  24079.49190979  .00000517  00000-0  50544-4 0  9991,2 52648  53.2159 252.2129 0001346  87.4974 272.6172 15.08840432102788,6917.879,95.438,540.675,538.813,0.0
52648.0,STARLINK-3854,PAYLOAD,2024-03-20 11:39:08,15.0883637,0.0001258,53.2173,247.7514,87.8573,272.2563,0.00010634,1.405e-05,0.0,0 STARLINK-3854,1 52648U 22052BC  24080.48551241  .00001405  00000-0  10634-3 0  9997,2 52648  53.2173 247.7514 0001258  87.8573 272.2563 15.08836370102553,6917.891,95.438,540.627,538.886,0.0
52648.0,STARLINK-3854,PAYLOAD,2024-03-20 18:00:41,15.08833667,0.0001221,53.2173,246.5601,98.5047,261.6083,6.7806e-05,7.91e-06,0.0,0 STARLINK-3854,1 52648U 22052BC  24080.75047508  .00000791  00000-0  67806-4 0  9994,2 52648  53.2173 246.5601 0001221  98.5047 261.6083 15.08833667102973,6917.9,95.438,540.609,538.92,0.0
52648.0,STARLINK-3854,PAYLOAD,2024-03-21 03:32:59,15.08842385,0.0001069,53.2176,244.7788,89.1202,270.9913,0.00014621,2.04e-05,0.0,0 STARLINK-3854,1 52648U 22052BC  24081.14790869  .00002040  00000-0  14621-3 0  9998,2 52648  53.2176 244.7788 0001069  89.1202 270.9913 15.08842385103031,6917.873,95.437,540.478,538.999,0.0
52648.0,STARLINK-3854,PAYLOAD,2024-03-21 11:29:55,15.08837947,0.000171,53.2175,243.2934,83.7011,276.4176,0.00011365,1.521e-05,0.0,0 STARLINK-3854,1 52648U 22052BC  24081.47911503  .00001521  00000-0  11365-3 0  9999,2 52648  53.2175 243.2934 0001710  83.7011 276.4176 15.08837947103083,6917.887,95.438,540.935,538.569,0.0
52648.0,STARLINK-3854,PAYLOAD,2024-03-21 14:40:41,15.08836408,0.0001498,53.2184,242.6993,97.2749,262.8413,8.8107e-05,1.114e-05,0.0,0 STARLINK-3854,1 52648U 22052BC  24081.61159542  .00001114  00000-0  88107-4 0  9999,2 52648  53.2184 242.6993 0001498  97.2749 262.8413 15.08836408102726,6917.891,95.438,540.793,538.72,0.0
52648.0,STARLINK-3854,PAYLOAD,2024-03-21 17:51:27,15.08840978,0.0001279,53.2185,242.1051,84.8494,275.2644,0.00015042,2.107e-05,0.0,0 STARLINK-3854,1 52648U 22052BC  24081.74407306  .00002107  00000-0  15042-3 0  9997,2 52648  53.2185 242.1051 0001279  84.8494 275.2644 15.08840978102746,6917.877,95.437,540.627,538.858,0.0
52648.0,STARLINK-3854,PAYLOAD,2024-03-22 14:31:29,15.08834099,0.0001173,53.2153,238.237,74.299,285.8132,6.2356e-05,7.05e-06,0.0,0 STARLINK-3854,1 52648U 22052BC  24082.60519831  .00000705  00000-0  62356-4 0  9993,2 52648  53.2153 238.2370 0001173  74.2990 285.8132 15.08834099102878,6917.898,95.438,540.575,538.952,0.0
52648.0,STARLINK-3854,PAYLOAD,2024-03-22 19:17:38,15.08833752,0.000132,53.2173,237.3482,107.0162,253.0975,8.1348e-05,1.007e-05,0.0,0 STARLINK-3854,1 52648U 22052BC  24082.80392058  .00001007  00000-0  81348-4 0  9993,2 52648  53.2173 237.3482 0001320 107.0162 253.0975 15.08833752103287,6917.899,95.438,540.678,538.851,0.0
52648.0,STARLINK-3854,PAYLOAD,2024-03-23 19:08:25,15.0884465,0.0001533,53.218,232.8833,91.0766,269.0401,5.4061e-05,5.73e-06,0.0,0 STARLINK-3854,1 52648U 22052BC  24083.79751802  .00000573  00000-0  54061-4 0  9997,2 52648  53.2180 232.8833 0001533  91.0766 269.0401 15.08844650103058,6917.866,95.437,540.792,538.671,0.0
52648.0,STARLINK-3854,PAYLOAD,2024-03-24 14:13:03,15.08843775,0.0001494,53.2171,229.3135,99.3203,260.7959,0.00022029,3.22e-05,0.0,0 STARLINK-3854,1 52648U 22052BC  24084.59239946  .00003220  00000-0  22029-3 0  9996,2 52648  53.2171 229.3135 0001494  99.3203 260.7959 15.08843775103173,6917.869,95.437,540.767,538.7,0.0
52648.0,STARLINK-3854,PAYLOAD,2024-03-24 17:23:49,15.08844818,0.0001382,53.2167,228.719,94.3413,265.7737,0.00023466,3.449e-05,0.0,0 STARLINK-3854,1 52648U 22052BC  24084.72487938  .00003449  00000-0  23466-3 0  9996,2 52648  53.2167 228.7190 0001382  94.3413 265.7737 15.08844818103196,6917.866,95.437,540.687,538.775,0.0
52648.0,STARLINK-3854,PAYLOAD,2024-03-25 02:56:07,15.0886006,0.00013,53.2166,226.9341,100.0711,260.0428,0.00043955,6.718e-05,0.0,0 STARLINK-3854,1 52648U 22052BC  24085.12231266  .00006718  00000-0  43955-3 0  9999,2 52648  53.2166 226.9341 0001300 100.0711 260.0428 15.08860060103630,6917.819,95.436,540.583,538.785,0.0
52648.0,STARLINK-3854,PAYLOAD,2024-03-25 15:39:14,15.08832017,0.0001327,53.217,224.5556,103.5179,256.5961,-8.7797e-05,-1.685e-05,0.0,0 STARLINK-3854,1 52648U 22052BC  24085.65224637 -.00001685  00000-0 -87797-4 0  9994,2 52648  53.2170 224.5556 0001327 103.5179 256.5961 15.08832017103714,6917.905,95.438,540.688,538.852,0.0
52648.0,STARLINK-3854,PAYLOAD,2024-03-26 12:19:14,15.0884355,0.0001584,53.2169,220.6899,96.4245,263.6928,0.00011529,1.547e-05,0.0,0 STARLINK-3854,1 52648U 22052BC  24086.51336266  .00001547  00000-0  11529-3 0  9996,2 52648  53.2169 220.6899 0001584  96.4245 263.6928 15.08843550103848,6917.87,95.437,540.83,538.639,0.0
52648.0,STARLINK-3854,PAYLOAD,2024-03-26 13:54:37,15.08840965,0.000149,53.2161,220.3917,96.9187,263.1975,8.8481e-05,1.121e-05,0.0,0 STARLINK-3854,1 52648U 22052BC  24086.57960424  .00001121  00000-0  88481-4 0  9991,2 52648  53.2161 220.3917 0001490  96.9187 263.1975 15.08840965103477,6917.877,95.437,540.773,538.712,0.0
52648.0,STARLINK-3854,PAYLOAD,2024-03-26 15:30:00,15.08839447,0.0001273,53.2161,220.0936,100.7959,259.3177,5.2505e-05,5.48e-06,0.0,0 STARLINK-3854,1 52648U 22052BC  24086.64584412  .00000548  00000-0  52505-4 0  9998,2 52648  53.2161 220.0936 0001273 100.7959 259.3177 15.08839447103480,6917.882,95.438,540.628,538.866,0.0
52648.0,STARLINK-3854,PAYLOAD,2024-03-27 12:10:02,15.08826295,0.0001326,53.2153,216.2304,95.1111,265.0032,0.00052138,8.016e-05,0.0,0 STARLINK-3854,1 52648U 22052BC  24087.50697362  .00008016  00000-0  52138-3 0  9992,2 52648  53.2153 216.2304 0001326  95.1111 265.0032 15.08826295103990,6917.922,95.438,540.705,538.87,0.0
52648.0,STARLINK-3854,PAYLOAD,2024-03-27 15:20:49,15.0879679,0.0001162,53.216,215.6386,97.5996,262.5128,0.00084166,0.00013117,0.0,0 STARLINK-3854,1 52648U 22052BC  24087.63946342  .00013117  00000-0  84166-3 0  9995,2 52648  53.2160 215.6386 0001162  97.5996 262.5128 15.08796790103631,6918.012,95.44,540.681,539.074,0.0
52648.0,STARLINK-3854,PAYLOAD,2024-03-27 18:31:33,15.08845068,0.0001232,53.2156,215.0425,81.7635,278.3497,0.00013374,1.842e-05,0.0,0 STARLINK-3854,1 52648U 22052BC  24087.77192090  .00001842  00000-0  13374-3 0  9998,2 52648  53.2156 215.0425 0001232  81.7635 278.3497 15.08845068104039,6917.865,95.437,540.582,538.878,0.0
52648.0,STARLINK-3854,PAYLOAD,2024-03-28 00:53:05,15.0885989,0.000132,53.2179,213.8547,86.4665,273.6478,0.00021495,3.136e-05,0.0,0 STARLINK-3854,1 52648U 22052BC  24088.03686833  .00003136  00000-0  21495-3 0  9992,2 52648  53.2179 213.8547 0001320  86.4665 273.6478 15.08859890104077,6917.82,95.436,540.598,538.771,0.0
52648.0,STARLINK-3854,PAYLOAD,2024-03-28 12:00:49,15.08827981,0.0001392,53.2165,211.7731,92.2454,267.8698,-8.2068e-05,-1.593e-05,0.0,0 STARLINK-3854,1 52648U 22052BC  24088.50057047 -.00001593  00000-0 -82068-4 0  9994,2 52648  53.2165 211.7731 0001392  92.2454 267.8698 15.08827981104147,6917.917,95.438,540.745,538.819,0.0
52648.0,STARLINK-3854,PAYLOAD,2024-03-28 15:11:35,15.08836367,0.0001273,53.2161,211.1781,93.2252,266.8886,3.6862e-05,2.99e-06,0.0,0 STARLINK-3854,1 52648U 22052BC  24088.63304677  .00000299  00000-0  36862-4 0  9993,2 52648  53.2161 211.1781 0001273  93.2252 266.8886 15.08836367103782,6917.891,95.438,540.637,538.876,0.0
52648.0,STARLINK-3854,PAYLOAD,2024-03-29 15:02:21,15.08845987,0.0001372,53.2166,206.7184,92.7157,267.3992,0.0001416,1.967e-05,0.0,0 STARLINK-3854,1 52648U 22052BC  24089.62664239  .00001967  00000-0  14160-3 0  9995,2 52648  53.2166 206.7184 0001372  92.7157 267.3992 15.08845987103931,6917.862,95.437,540.676,538.778,0.0
52648.0,STARLINK-3854,PAYLOAD,2024-03-29 18:13:08,15.08849374,0.00014,53.2166,206.1219,82.6907,277.4244,0.00015422,2.168e-05,0.0,0 STARLINK-3854,1 52648U 22052BC  24089.75912076  .00002168  00000-0  15422-3 0  9990,2 52648  53.2166 206.1219 0001400  82.6907 277.4244 15.08849374104338,6917.852,95.437,540.685,538.748,0.0
52648.0,STARLINK-3854,PAYLOAD,2024-03-30 11:42:23,15.08827541,0.0001458,53.2177,202.8527,97.0845,263.0313,6.2398e-05,7.05e-06,0.0,0 STARLINK-3854,1 52648U 22052BC  24090.48777187  .00000705  00000-0  62398-4 0  9994,2 52648  53.2177 202.8527 0001458  97.0845 263.0313 15.08827541104441,6917.918,95.438,540.792,538.775,0.0
52648.0,STARLINK-3854,PAYLOAD,2024-03-30 13:17:46,15.08828469,0.0001578,53.2174,202.5542,95.1401,264.9771,9.1966e-06,-1.42e-06,0.0,0 STARLINK-3854,1 52648U 22052BC  24090.55401039 -.00000142  00000-0  91966-5 0  9992,2 52648  53.2174 202.5542 0001578  95.1401 264.9771 15.08828469104079,6917.916,95.438,540.872,538.689,0.0
52648.0,STARLINK-3854,PAYLOAD,2024-03-30 16:28:32,15.08832235,0.0001747,53.2189,201.9605,96.413,263.7061,6.0102e-05,6.68e-06,0.0,0 STARLINK-3854,1 52648U 22052BC  24090.68648999  .00000668  00000-0  60102-4 0  9993,2 52648  53.2189 201.9605 0001747  96.4130 263.7061 15.08832235104096,6917.904,95.438,540.978,538.561,0.0
52648.0,STARLINK-3854,PAYLOAD,2024-03-31 00:25:27,15.08853364,0.0001598,53.2182,200.4722,81.781,278.3364,0.00031525,4.735e-05,0.0,0 STARLINK-3854,1 52648U 22052BC  24091.01768223  .00004735  00000-0  31525-3 0  9999,2 52648  53.2182 200.4722 0001598  81.7810 278.3364 15.08853364104521,6917.84,95.437,540.81,538.599,0.0
